OBJECT_NAME,OBJECT_ID,EPOCH,MEAN_MOTION,ECCENTRICITY,INCLINATION,RA_OF_ASC_NODE,ARG_OF_PERICENTER,MEAN_ANOMALY,EPHEMERIS_TYPE,CLASSIFICATION_TYPE,NORAD_CAT_ID,ELEMENT_SET_NO,REV_AT_EPOCH,BSTAR,MEAN_MOTION_DOT,MEAN_MOTION_DDOT
HODOYOSHI-4,2014-033B,2026-06-14T11:29:40.911936,14.88125737,.0022619,97.5449,350.4325,317.9396,42.0084,0,U,40011,999,64840,.2031E-3,.1825E-4,0
DEIMOS-2,2014-033D,2026-06-14T12:05:11.969664,14.93717088,.0001655,97.5840,40.0872,48.9434,311.1929,0,U,40013,999,63732,.6508E-4,.634E-5,0
HODOYOSHI-3,2014-033F,2026-06-14T10:09:15.905664,14.85383551,.0032961,97.6414,328.5749,6.4284,353.7348,0,U,40015,999,64721,.11563E-3,.952E-5,0
SPOT 7,2014-034A,2026-06-14T12:15:07.530048,14.60957241,.0001198,98.0637,228.0710,90.5762,269.5576,0,U,40053,999,63674,.14668E-3,.673E-5,0
SKYSAT-B,2014-037D,2026-06-14T12:03:46.687680,14.88021557,.0004276,98.3838,124.3145,293.3960,66.6805,0,U,40072,999,64556,.13889E-3,.1214E-4,0
WORLDVIEW-3 (WV-3),2014-048A,2026-06-14T11:19:53.573376,14.85017971,.0001198,97.8566,240.3424,29.5321,330.5961,0,U,40115,999,64150,.93215E-4,.742E-5,0
GAOFEN-2,2014-049A,2026-06-14T12:59:20.383296,14.80897516,.0006012,98.0117,229.7508,236.9030,123.1605,0,U,40118,999,63884,.14515E-3,.1068E-4,0
YAOGAN-21,2014-053A,2026-06-14T12:58:01.526016,15.26344388,.0009955,97.1476,205.8897,100.6458,259.5903,0,U,40143,999,65455,.40072E-3,.10361E-3,0
YAOGAN-22,2014-063A,2026-06-14T08:55:23.462112,13.15531007,.0006277,100.7720,316.5983,191.6270,168.4697,0,U,40275,999,55944,.41161E-4,-.31E-6,0
ASNARO,2014-070A,2026-06-14T12:36:01.300320,15.19407060,.0005365,97.3461,241.7110,172.2661,187.8658,0,U,40298,999,64360,.56652E-3,.11942E-3,0
YAOGAN-24,2014-072A,2026-06-14T12:09:13.352256,14.76220268,.001253,98.1478,302.8216,273.1983,86.7792,0,U,40310,999,62332,.93655E-4,.595E-5,0
CBERS 4,2014-079A,2026-06-14T12:40:14.131776,14.35509313,.0001917,98.3538,222.4430,65.6918,294.4468,0,U,40336,999,60357,.14643E-3,.379E-5,0
YAOGAN-26,2014-088A,2026-06-14T13:07:16.648608,15.47246765,.0006186,97.0633,165.8175,73.0457,287.1472,0,U,40362,999,63729,.19793E-3,.9998E-4,0
SMAP,2015-003A,2026-06-14T11:33:29.336256,14.63364512,.0001302,98.1276,172.6145,95.2533,264.8817,0,U,40376,999,60722,.82989E-4,.382E-5,0
KOMPSAT-3A,2015-014A,2026-06-14T11:20:55.459968,15.53882167,.0056298,97.6880,156.6366,184.3395,175.7377,0,U,40536,999,62139,.32909E-3,.22622E-3,0
SENTINEL-2A,2015-028A,2026-06-14T11:41:52.485792,14.30814762,.0001097,98.5690,240.3773,90.5531,269.5778,0,U,40697,999,57334,.82103E-4,.172E-5,0
GAOFEN-8,2015-030A,2026-06-14T11:57:59.248224,15.45865513,.0008562,97.6902,358.7078,195.9472,164.1508,0,U,40701,999,61103,.37275E-3,.18045E-3,0
CARBONITE 1 (CBNT-1),2015-032D,2026-06-14T11:37:56.396064,14.83579358,.0013287,97.6500,343.6646,307.7991,52.2020,0,U,40718,999,58894,.1461E-3,.1154E-4,0
YAOGAN-27,2015-040A,2026-06-14T12:28:36.935616,13.16069407,.0007607,100.1145,152.0182,217.2579,142.8008,0,U,40878,999,51731,-.71415E-3,-.314E-5,0
GAOFEN-9 01,2015-047A,2026-06-14T11:57:43.317792,14.82879106,.0028216,97.6275,201.3153,146.3296,213.9718,0,U,40894,999,57979,.1135E-3,.875E-5,0
YAOGAN-28,2015-064A,2026-06-14T13:42:33.219648,15.27391795,.0010387,97.3069,303.8859,192.5572,167.5411,0,U,41026,999,59028,.21955E-3,.5823E-4,0
YAOGAN-29,2015-069A,2026-06-14T13:07:02.383104,14.83082736,.0002741,98.0030,194.1752,58.0015,302.1464,0,U,41038,999,57023,.33918E-4,.222E-5,0
KENT RIDGE 1,2015-077B,2026-06-13T16:37:26.874624,15.23112968,.0008249,14.9789,291.9825,189.0994,170.9179,0,U,41167,999,58056,.14065697E-3,.4186E-4,0
GAOFEN-4,2015-083A,2026-06-14T11:53:54.597984,1.00270091,.0004349,0.3492,83.8513,114.4931,348.6363,0,U,41194,999,3850,0,-.327E-5,0
JASON-3,2016-002A,2026-06-14T12:24:45.679104,12.87628026,.0008547,66.0400,131.4483,272.9226,87.0815,0,U,41240,999,48690,-.37624E-5,-.63E-6,0
SENTINEL-3A,2016-011A,2026-06-14T11:33:21.091104,14.26739282,.0001393,98.6249,232.9039,102.5174,257.6163,0,U,41335,999,53767,.59467E-4,.1E-5,0
ZIYUAN 3-02 (ZY 3-02),2016-033A,2026-06-14T11:50:13.210080,15.21458285,.0011254,97.3841,241.3192,300.5408,59.4717,0,U,41556,999,55757,.2352E-3,.5225E-4,0
CARTOSAT-2C,2016-040A,2026-06-14T11:48:10.247328,15.19301400,.0010401,97.4495,225.5070,139.7543,220.4463,0,U,41599,999,55330,.23534E-3,.4906E-4,0
SKYSAT-C1,2016-040C,2026-06-14T11:32:11.025024,15.36261031,.0003691,96.9563,197.3471,63.4838,296.6785,0,U,41601,999,55745,.25143E-3,.8815E-4,0
LAPAN-A3,2016-040E,2026-06-14T12:21:44.180352,15.33089089,.0011206,97.1485,161.7485,34.6949,325.5023,0,U,41603,999,55440,.10002E-3,.3127E-4,0
GAOFEN-3,2016-049A,2026-06-14T12:24:27.853056,14.42215835,.0001324,98.4007,173.3431,98.4231,261.7109,0,U,41727,999,51826,.70686E-4,.189E-5,0
