HODOYOSHI-4             
1 40011U 14033B   26165.47894574  .00001825  00000+0  20310-3 0  9999
2 40011  97.5449 350.4325 0022619 317.9396  42.0084 14.88125737648402
DEIMOS-2                
1 40013U 14033D   26165.50361076  .00000634  00000+0  65080-4 0  9992
2 40013  97.5840  40.0872 0001655  48.9434 311.1929 14.93717088637328
HODOYOSHI-3             
1 40015U 14033F   26165.42310076  .00000952  00000+0  11563-3 0  9998
2 40015  97.6414 328.5749 0032961   6.4284 353.7348 14.85383551647212
SPOT 7                  
1 40053U 14034A   26165.51050382  .00000673  00000+0  14668-3 0  9991
2 40053  98.0637 228.0710 0001198  90.5762 269.5576 14.60957241636740
SKYSAT-B                
1 40072U 14037D   26165.50262370  .00001214  00000+0  13889-3 0  9992
2 40072  98.3838 124.3145 0004276 293.3960  66.6805 14.88021557645563
WORLDVIEW-3 (WV-3)      
1 40115U 14048A   26165.47214784  .00000742  00000+0  93215-4 0  9991
2 40115  97.8566 240.3424 0001198  29.5321 330.5961 14.85017971641500
GAOFEN-2                
1 40118U 14049A   26165.54120814  .00001068  00000+0  14515-3 0  9990
2 40118  98.0117 229.7508 0006012 236.9030 123.1605 14.80897516638843
YAOGAN-21               
1 40143U 14053A   26165.54029544  .00010361  00000+0  40072-3 0  9994
2 40143  97.1476 205.8897 0009955 100.6458 259.5903 15.26344388654551
YAOGAN-22               
1 40275U 14063A   26165.37179933 -.00000031  00000+0  41161-4 0  9995
2 40275 100.7720 316.5983 0006277 191.6270 168.4697 13.15531007559444
ASNARO                  
1 40298U 14070A   26165.52501505  .00011942  00000+0  56652-3 0  9991
2 40298  97.3461 241.7110 0005365 172.2661 187.8658 15.19407060643600
YAOGAN-24               
1 40310U 14072A   26165.50640454  .00000595  00000+0  93655-4 0  9990
2 40310  98.1478 302.8216 0012530 273.1983  86.7792 14.76220268623326
CBERS 4                 
1 40336U 14079A   26165.52794134  .00000379  00000+0  14643-3 0  9991
2 40336  98.3538 222.4430 0001917  65.6918 294.4468 14.35509313603576
YAOGAN-26               
1 40362U 14088A   26165.54672047  .00009998  00000+0  19793-3 0  9997
2 40362  97.0633 165.8175 0006186  73.0457 287.1472 15.47246765637290
SMAP                    
1 40376U 15003A   26165.48158954  .00000382  00000+0  82989-4 0  9995
2 40376  98.1276 172.6145 0001302  95.2533 264.8817 14.63364512607222
KOMPSAT-3A              
1 40536U 15014A   26165.47286412  .00022622  00000+0  32909-3 0  9992
2 40536  97.6880 156.6366 0056298 184.3395 175.7377 15.53882167621398
SENTINEL-2A             
1 40697U 15028A   26165.48741303  .00000172  00000+0  82103-4 0  9999
2 40697  98.5690 240.3773 0001097  90.5531 269.5778 14.30814762573343
GAOFEN-8                
1 40701U 15030A   26165.49860241  .00018045  00000+0  37275-3 0  9999
2 40701  97.6902 358.7078 0008562 195.9472 164.1508 15.45865513611032
CARBONITE 1 (CBNT-1)    
1 40718U 15032D   26165.48468051  .00001154  00000+0  14610-3 0  9992
2 40718  97.6500 343.6646 0013287 307.7991  52.2020 14.83579358588946
YAOGAN-27               
1 40878U 15040A   26165.51987194 -.00000314  00000+0 -71415-3 0  9991
2 40878 100.1145 152.0182 0007607 217.2579 142.8008 13.16069407517310
GAOFEN-9 01             
1 40894U 15047A   26165.49841803  .00000875  00000+0  11350-3 0  9991
2 40894  97.6275 201.3153 0028216 146.3296 213.9718 14.82879106579792
YAOGAN-28               
1 41026U 15064A   26165.57121782  .00005823  00000+0  21955-3 0  9994
2 41026  97.3069 303.8859 0010387 192.5572 167.5411 15.27391795590283
YAOGAN-29               
1 41038U 15069A   26165.54655536  .00000222  00000+0  33918-4 0  9999
2 41038  98.0030 194.1752 0002741  58.0015 302.1464 14.83082736570239
KENT RIDGE 1            
1 41167U 15077B   26164.69267216  .00004186  00000+0  14066-3 0  9995
2 41167  14.9789 291.9825 0008249 189.0994 170.9179 15.23112968580564
GAOFEN-4                
1 41194U 15083A   26165.49577081 -.00000327  00000+0  00000+0 0  9998
2 41194   0.3492  83.8513 0004349 114.4931 348.6363  1.00270091 38509
JASON-3                 
1 41240U 16002A   26165.51719536 -.00000063  00000+0 -37624-5 0  9994
2 41240  66.0400 131.4483 0008547 272.9226  87.0815 12.87628026486905
SENTINEL-3A             
1 41335U 16011A   26165.48149411  .00000100  00000+0  59467-4 0  9992
2 41335  98.6249 232.9039 0001393 102.5174 257.6163 14.26739282537672
ZIYUAN 3-02 (ZY 3-02)   
1 41556U 16033A   26165.49320845  .00005225  00000+0  23520-3 0  9997
2 41556  97.3841 241.3192 0011254 300.5408  59.4717 15.21458285557573
CARTOSAT-2C             
1 41599U 16040A   26165.49178527  .00004906  00000+0  23534-3 0  9990
2 41599  97.4495 225.5070 0010401 139.7543 220.4463 15.19301400553308
SKYSAT-C1               
1 41601U 16040C   26165.48068316  .00008815  00000+0  25143-3 0  9998
2 41601  96.9563 197.3471 0003691  63.4838 296.6785 15.36261031557452
LAPAN-A3                
1 41603U 16040E   26165.51509468  .00003127  00000+0  10002-3 0  9991
2 41603  97.1485 161.7485 0011206  34.6949 325.5023 15.33089089554401
GAOFEN-3                
1 41727U 16049A   26165.51698904  .00000189  00000+0  70686-4 0  9991
2 41727  98.4007 173.3431 0001324  98.4231 261.7109 14.42215835518263
